{"type": "FeatureCollection", "features": [ {"type": "Feature", "properties": {"norad_id": 66537, "name": "STARLINK-35582", "group": "last-30-days", "lat": 18.636634800233534, "lon": -85.65861310083177, "alt_km": 342.06723578705805, "timestamp": "2025-12-02T08:59:31.504145+00:00", "meta": {"OBJECT_NAME": "STARLINK-35582", "OBJECT_ID": "2025-265X", "EPOCH": "2025-12-02T04:00:03.998880", "MEAN_MOTION": 15.75025377, "ECCENTRICITY": 0.0001998, "INCLINATION": 43.0001, "RA_OF_ASC_NODE": 116.8214, "ARG_OF_PERICENTER": 262.0725, "MEAN_ANOMALY": 149.3374, "EPHEMERIS_TYPE": 0, "CLASSIFICATION_TYPE": "U", "NORAD_CAT_ID": 66537, "ELEMENT_SET_NO": 999, "REV_AT_EPOCH": 329, "BSTAR": 0.0001813, "MEAN_MOTION_DOT": 0.00027446, "MEAN_MOTION_DDOT": 0}, "tle": {"line1": "1 66537U 25265X   25336.16671295  .00027446  00000+0  18130-3 0  9991", "line2": "2 66537  43.0001 116.8214 0001998 262.0725 149.3374 15.75025377  3298"}}, "geometry": {"type": "Point", "coordinates": [-85.65861310083177, 18.636634800233534]}}, {"type": "Feature", "properties": {"norad_id": 66538, "name": "STARLINK-35577", "group": "last-30-days", "lat": 17.404003472906062, "lon": -84.10248157030702, "alt_km": 342.2982451295529, "timestamp": "2025-12-02T08:59:31.504156+00:00", "meta": {"OBJECT_NAME": "STARLINK-35577", "OBJECT_ID": "2025-265Y", "EPOCH": "2025-12-02T04:00:03.998880", "MEAN_MOTION": 15.75040726, "ECCENTRICITY": 0.0001609, "INCLINATION": 43.0002, "RA_OF_ASC_NODE": 116.8163, "ARG_OF_PERICENTER": 272.3053, "MEAN_ANOMALY": 141.0207, "EPHEMERIS_TYPE": 0, "CLASSIFICATION_TYPE": "U", "NORAD_CAT_ID": 66538, "ELEMENT_SET_NO": 999, "REV_AT_EPOCH": 329, "BSTAR": -1.6953e-05, "MEAN_MOTION_DOT": -3.081e-05, "MEAN_MOTION_DDOT": 0}, "tle": {"line1": "1 66538U 25265Y   25336.16671295 -.00003081  00000+0 -16953-4 0  9995", "line2": "2 66538  43.0002 116.8163 0001609 272.3053 141.0207 15.75040726  3299"}}, "geometry": {"type": "Point", "coordinates": [-84.10248157030702, 17.404003472906062]}}, {"type": "Feature", "properties": {"norad_id": 66539, "name": "STARLINK-35697", "group": "last-30-days", "lat": 16.174742335898312, "lon": -82.58659025159332, "alt_km": 342.4394058420921, "timestamp": "2025-12-02T08:59:31.504166+00:00", "meta": {"OBJECT_NAME": "STARLINK-35697", "OBJECT_ID": "2025-265Z", "EPOCH": "2025-12-02T04:00:03.998880", "MEAN_MOTION": 15.75043773, "ECCENTRICITY": 0.0001835, "INCLINATION": 43.0001, "RA_OF_ASC_NODE": 116.8109, "ARG_OF_PERICENTER": 268.2215, "MEAN_ANOMALY": 147.0095, "EPHEMERIS_TYPE": 0, "CLASSIFICATION_TYPE": "U", "NORAD_CAT_ID": 66539, "ELEMENT_SET_NO": 999, "REV_AT_EPOCH": 329, "BSTAR": 4.6985e-07, "MEAN_MOTION_DOT": -4.06e-06, "MEAN_MOTION_DDOT": 0}, "tle": {"line1": "1 66539U 25265Z   25336.16671295 -.00000406  00000+0  46985-6 0  9993", "line2": "2 66539  43.0001 116.8109 0001835 268.2215 147.0095 15.75043773  3290"}}, "geometry": {"type": "Point", "coordinates": [-82.58659025159332, 16.174742335898312]}}, {"type": "Feature", "properties": {"norad_id": 66540, "name": "STARLINK-35818", "group": "last-30-days", "lat": 14.918416153549416, "lon": -81.06883845570172, "alt_km": 342.4869894356543, "timestamp": "2025-12-02T08:59:31.504178+00:00", "meta": {"OBJECT_NAME": "STARLINK-35818", "OBJECT_ID": "2025-265AA", "EPOCH": "2025-12-02T04:00:03.998880", "MEAN_MOTION": 15.75046421, "ECCENTRICITY": 0.000178, "INCLINATION": 42.9998, "RA_OF_ASC_NODE": 116.8067, "ARG_OF_PERICENTER": 262.6809, "MEAN_ANOMALY": 154.4809, "EPHEMERIS_TYPE": 0, "CLASSIFICATION_TYPE": "U", "NORAD_CAT_ID": 66540, "ELEMENT_SET_NO": 999, "REV_AT_EPOCH": 329, "BSTAR": -0.00012157, "MEAN_MOTION_DOT": -0.00019116, "MEAN_MOTION_DDOT": 0}, "tle": {"line1": "1 66540U 25265AA  25336.16671295 -.00019116  00000+0 -12157-3 0  9995", "line2": "2 66540  42.9998 116.8067 0001780 262.6809 154.4809 15.75046421  3292"}}, "geometry": {"type": "Point", "coordinates": [-81.06883845570172, 14.918416153549416]}}, {"type": "Feature", "properties": {"norad_id": 66541, "name": "STARLINK-35796", "group": "last-30-days", "lat": 13.66160024734499, "lon": -79.58053134289248, "alt_km": 342.6034431662647, "timestamp": "2025-12-02T08:59:31.504188+00:00", "meta": {"OBJECT_NAME": "STARLINK-35796", "OBJECT_ID": "2025-265AB", "EPOCH": "2025-12-02T04:00:03.998880", "MEAN_MOTION": 15.75022518, "ECCENTRICITY": 0.0001828, "INCLINATION": 42.9998, "RA_OF_ASC_NODE": 116.8017, "ARG_OF_PERICENTER": 258.7929, "MEAN_ANOMALY": 160.2988, "EPHEMERIS_TYPE": 0, "CLASSIFICATION_TYPE": "U", "NORAD_CAT_ID": 66541, "ELEMENT_SET_NO": 999, "REV_AT_EPOCH": 329, "BSTAR": 6.5766e-05, "MEAN_MOTION_DOT": 9.629e-05, "MEAN_MOTION_DDOT": 0}, "tle": {"line1": "1 66541U 25265AB  25336.16671295  .00009629  00000+0  65766-4 0  9997", "line2": "2 66541  42.9998 116.8017 0001828 258.7929 160.2988 15.75022518  3294"}}, "geometry": {"type": "Point", "coordinates": [-79.58053134289248, 13.66160024734499]}}, {"type": "Feature", "properties": {"norad_id": 66542, "name": "STARLINK-35833", "group": "last-30-days", "lat": 12.39496554883142, "lon": -78.10625428369993, "alt_km": 342.72010708531343, "timestamp": "2025-12-02T08:59:31.504198+00:00", "meta": {"OBJECT_NAME": "STARLINK-35833", "OBJECT_ID": "2025-265AC", "EPOCH": "2025-12-02T04:00:03.998880", "MEAN_MOTION": 15.75000836, "ECCENTRICITY": 0.0001802, "INCLINATION": 43.0001, "RA_OF_ASC_NODE": 116.7973, "ARG_OF_PERICENTER": 258.593, "MEAN_ANOMALY": 162.4195, "EPHEMERIS_TYPE": 0, "CLASSIFICATION_TYPE": "U", "NORAD_CAT_ID": 66542, "ELEMENT_SET_NO": 999, "REV_AT_EPOCH": 329, "BSTAR": 0.00058479, "MEAN_MOTION_DOT": 0.00090167, "MEAN_MOTION_DDOT": 0}, "tle": {"line1": "1 66542U 25265AC  25336.16671295  .00090167  00000+0  58479-3 0  9997", "line2": "2 66542  43.0001 116.7973 0001802 258.5930 162.4195 15.75000836  3297"}}, "geometry": {"type": "Point", "coordinates": [-78.10625428369993, 12.39496554883142]}}, {"type": "Feature", "properties": {"norad_id": 66543, "name": "STARLINK-35315", "group": "last-30-days", "lat": 11.126887224739315, "lon": -76.65480878497311, "alt_km": 342.94626822593636, "timestamp": "2025-12-02T08:59:31.504209+00:00", "meta": {"OBJECT_NAME": "STARLINK-35315", "OBJECT_ID": "2025-265AD", "EPOCH": "2025-12-02T04:00:03.998880", "MEAN_MOTION": 15.75030043, "ECCENTRICITY": 0.0001857, "INCLINATION": 43.0001, "RA_OF_ASC_NODE": 116.792, "ARG_OF_PERICENTER": 261.7773, "MEAN_ANOMALY": 161.1329, "EPHEMERIS_TYPE": 0, "CLASSIFICATION_TYPE": "U", "NORAD_CAT_ID": 66543, "ELEMENT_SET_NO": 999, "REV_AT_EPOCH": 318, "BSTAR": 9.4347e-05, "MEAN_MOTION_DOT": 0.00014033, "MEAN_MOTION_DDOT": 0}, "tle": {"line1": "1 66543U 25265AD  25336.16671295  .00014033  00000+0  94347-4 0  9991", "line2": "2 66543  43.0001 116.7920 0001857 261.7773 161.1329 15.75030043  3187"}}, "geometry": {"type": "Point", "coordinates": [-76.65480878497311, 11.126887224739315]}}, {"type": "Feature", "properties": {"norad_id": 66544, "name": "STARLINK-35728", "group": "last-30-days", "lat": 9.84100704108011, "lon": -75.20303850854182, "alt_km": 343.1687272879117, "timestamp": "2025-12-02T08:59:31.504220+00:00", "meta": {"OBJECT_NAME": "STARLINK-35728", "OBJECT_ID": "2025-265AE", "EPOCH": "2025-12-02T04:00:03.998880", "MEAN_MOTION": 15.75034719, "ECCENTRICITY": 0.0001792, "INCLINATION": 43, "RA_OF_ASC_NODE": 116.7875, "ARG_OF_PERICENTER": 265.7548, "MEAN_ANOMALY": 159.0759, "EPHEMERIS_TYPE": 0, "CLASSIFICATION_TYPE": "U", "NORAD_CAT_ID": 66544, "ELEMENT_SET_NO": 999, "REV_AT_EPOCH": 329, "BSTAR": 4.0026e-05, "MEAN_MOTION_DOT": 5.674e-05, "MEAN_MOTION_DDOT": 0}, "tle": {"line1": "1 66544U 25265AE  25336.16671295  .00005674  00000+0  40026-4 0  9998", "line2": "2 66544  43.0000 116.7875 0001792 265.7548 159.0759 15.75034719  3297"}}, "geometry": {"type": "Point", "coordinates": [-75.20303850854182, 9.84100704108011]}}, {"type": "Feature", "properties": {"norad_id": 66545, "name": "SHIJIAN-30A", "group": "last-30-days", "lat": -16.752812053156184, "lon": -144.8742076628322, "alt_km": 526.7998731082416, "timestamp": "2025-12-02T08:59:31.504231+00:00", "meta": {"OBJECT_NAME": "SHIJIAN-30A", "OBJECT_ID": "2025-266A", "EPOCH": "2025-12-02T03:21:26.417376", "MEAN_MOTION": 15.15296003, "ECCENTRICITY": 0.0012742, "INCLINATION": 51.7993, "RA_OF_ASC_NODE": 22.5132, "ARG_OF_PERICENTER": 318.5143, "MEAN_ANOMALY": 41.4865, "EPHEMERIS_TYPE": 0, "CLASSIFICATION_TYPE": "U", "NORAD_CAT_ID": 66545, "ELEMENT_SET_NO": 999, "REV_AT_EPOCH": 197, "BSTAR": 0.00077079, "MEAN_MOTION_DOT": 0.00014442, "MEAN_MOTION_DDOT": 0}, "tle": {"line1": "1 66545U 25266A   25336.13988909  .00014442  00000+0  77079-3 0  9990", "line2": "2 66545  51.7993  22.5132 0012742 318.5143  41.4865 15.15296003  1975"}}, "geometry": {"type": "Point", "coordinates": [-144.8742076628322, -16.752812053156184]}}, {"type": "Feature", "properties": {"norad_id": 66546, "name": "SHIJIAN-30B", "group": "last-30-days", "lat": -12.468791452715472, "lon": -148.54805173522166, "alt_km": 526.3520978370843, "timestamp": "2025-12-02T08:59:31.504241+00:00", "meta": {"OBJECT_NAME": "SHIJIAN-30B", "OBJECT_ID": "2025-266B", "EPOCH": "2025-12-02T03:22:56.286336", "MEAN_MOTION": 15.15351745, "ECCENTRICITY": 0.0010409, "INCLINATION": 51.7976, "RA_OF_ASC_NODE": 22.5183, "ARG_OF_PERICENTER": 321.4153, "MEAN_ANOMALY": 38.6079, "EPHEMERIS_TYPE": 0, "CLASSIFICATION_TYPE": "U", "NORAD_CAT_ID": 66546, "ELEMENT_SET_NO": 999, "REV_AT_EPOCH": 197, "BSTAR": 0.00087524, "MEAN_MOTION_DOT": 0.00016463, "MEAN_MOTION_DDOT": 0}, "tle": {"line1": "1 66546U 25266B   25336.14092924  .00016463  00000+0  87524-3 0  9996", "line2": "2 66546  51.7976  22.5183 0010409 321.4153  38.6079 15.15351745  1975"}}, "geometry": {"type": "Point", "coordinates": [-148.54805173522166, -12.468791452715472]}}]}